INTELSAT 11 (IS-11)     
1 32253C 07044B   22208.95403935 -.00000378  00000-0  00000-0 0  2084
2 32253   0.0449 245.9480 0001628 282.4244  77.6859  1.00273006    11
INTELSAT 11 (IS-11) [PM]
1 32253C 07044B   22210.36543982 -.00003908  00000-0  00000-0 0  2104
2 32253   0.0452 250.2132 0001721 279.5067 225.8403  1.00271891    14
INTELSAT 11 (IS-11)     
1 32253C 07044B   22212.95304398 -.00004193  00000-0  00000-0 0  2126
2 32253   0.0419 262.2188 0001795 263.0092  84.4220  1.00270877    17
HORIZONS-2              
1 32388C 07063B   22208.95403935  .00000222  00000-0  00000-0 0  2081
2 32388   0.0019  45.9389 0004534  43.3004 241.4003  0.99706167    14
HORIZONS-2          [PM]
1 32388C 07063B   22210.95833333  .00000246  00000-0  00000-0 0  2102
2 32388   0.0415 291.8736 0004603 157.0829 241.1205  0.99706550    14
HORIZONS-2              
1 32388C 07063B   22212.95304398  .00000264  00000-0  00000-0 0  2120
2 32388   0.0431 285.0208 0004730 164.1717 236.8905  0.99707189    14
GALAXY 18 (G-18)        
1 32951C 08024A   22208.95403935  .00000046  00000-0  00000-0 0  2089
2 32951   0.0000  18.9509 0003074 117.8110  29.2860  1.00271039    18
GALAXY 18 (G-18)    [PM]
1 32951C 08024A   22210.02083333  .00000115  00000-0  00000-0 0  2106
2 32951   0.0001  70.0563 0003092  67.6099  53.4783  1.00271227    18
GALAXY 18 (G-18)        
1 32951C 08024A   22212.95304398  .00000115  00000-0  00000-0 0  2129
2 32951   0.0000 113.2323 0003219  24.2433  32.1567  1.00271151    13
INTELSAT 25 (IS-25)     
1 33153C 08034A   22208.95403935 -.00000128  00000-0  00000-0 0  2087
2 33153   0.0150 116.1940 0002898  37.9512 103.3951  1.00272701    12
INTELSAT 25 (IS-25)     
1 33153C 08034A   22212.95304398 -.00000135  00000-0  00000-0 0  2128
2 33153   0.0125 141.5813 0002898   1.9647 117.5795  1.00271832    12
INTELSAT 25 (IS-25) [PM]
1 33153C 08034A   22214.84979167 -.00000134  00000-0  00000-0 0  2141
2 33153   0.0115 132.2636 0003060   8.9178  84.6437  1.00273029    16
GALAXY 19 (G-19)        
1 33376C 08045A   22208.95403935 -.00000070  00000-0  00000-0 0  2082
2 33376   0.0553 250.3558 0002690 242.7306  58.9617  1.00271926    11
GALAXY 19 (G-19)        
1 33376C 08045A   22212.95304398 -.00000024  00000-0  00000-0 0  2124
2 33376   0.0000 292.3394 0002838 201.1808  62.1158  1.00270756    19
GALAXY 19 (G-19)    [PM]
1 33376C 08045A   22213.67562500 -.00000049  00000-0  00000-0 0  2133
2 33376   0.0663 271.2378 0002940 224.5594 320.6795  1.00270425    19
GALAXY 19 (G-19)    [PM]
1 33376C 08045A   22214.51141204 -.00000049  00000-0  00000-0 0  2142
2 33376   0.0639 272.2114 0003038 224.2650 261.7079  1.00270980    16
INTELSAT 14 (IS-14)     
1 36097C 09064A   22208.95403935 -.00000180  00000-0  00000-0 0  2089
2 36097   0.0066  84.4094 0002261  54.0617 105.5726  1.00273543    14
INTELSAT 14 (IS-14)     
1 36097C 09064A   22212.95304398 -.00000183  00000-0  00000-0 0  2125
2 36097   0.0121  99.9639 0002437  37.8647 109.8153  1.00271389    16
INTELSAT 14 (IS-14) [PM]
1 36097C 09064A   22213.53281250 -.00000204  00000-0  00000-0 0  2136
2 36097   0.0003   0.7960 0002549 137.2435 318.8925  1.00269073    12
INTELSAT 14 (IS-14) [PM]
1 36097C 09064A   22214.61582176 -.00000206  00000-0  00000-0 0  2140
2 36097   0.0233 322.5338 0002960 178.4155 346.9243  1.00264369    12
INTELSAT 15 (IS-15)     
1 36106C 09067A   22208.95403935 -.00000060  00000-0  00000-0 0  2080
2 36106   0.0089   8.5393 0002216 135.5090 230.1481  1.00270801    16
INTELSAT 15 (IS-15)     
1 36106C 09067A   22212.95304398 -.00000088  00000-0  00000-0 0  2123
2 36106   0.0023  44.8705 0002309  95.6575 237.2598  1.00271091    10
INTELSAT 15 (IS-15) [PM]
1 36106C 09067A   22215.48981482 -.00000095  00000-0  00000-0 0  2150
2 36106   0.0078  46.6821 0002494  89.4080  77.4314  1.00272726    12
INTELSAT 16 (IS-16)     
1 36397C 10006A   22208.95403935 -.00000252  00000-0  00000-0 0  2080
2 36397   0.0061   9.7367 0001772 124.7975  78.3036  1.00273304    19
INTELSAT 16 (IS-16)     
1 36397C 10006A   22212.95304398 -.00000156  00000-0  00000-0 0  2126
2 36397   0.0001  53.6548 0001927  78.3900  84.3909  1.00271228    15
INTELSAT 16 (IS-16) [PM]
1 36397C 10006A   22215.96020833 -.00000155  00000-0  00000-0 0  2151
2 36397   0.0060  54.9357 0002222  73.2714  93.7640  1.00273576    12
INTELSAT 17 (IS-17)     
1 37238C 10065B   22208.95403935  .00000088  00000-0  00000-0 0  2086
2 37238   0.0274 182.6239 0002669 327.8279 204.6034  1.00274191    15
INTELSAT 17 (IS-17)     
1 37238C 10065B   22212.95304398  .00000086  00000-0  00000-0 0  2127
2 37238   0.0468 260.0511 0002522 234.6012 223.9886  1.00271212    12
INTELSAT 17 (IS-17) [PM]
1 37238C 10065B   22215.51041667 -.00003214  00000-0  00000-0 0  2159
2 37238   0.0389 262.0652 0002796 231.2805  68.4582  1.00270779    10
INTELSAT NEW DAWN       
1 37392C 11016A   22208.95403935  .00000246  00000-0  00000-0 0  2080
2 37392   0.0163 143.6467 0000698 329.4868 208.7288  1.00271537    12
INTELSAT NEW DAWN       
1 37392C 11016A   22212.95304398  .00000246  00000-0  00000-0 0  2123
2 37392   0.0170 143.7472 0001742 310.1371 231.5493  1.00260646    15
INTELSAT NEW DAWN   [PM]
1 37392C 11016A   22213.33464120  .00000245  00000-0  00000-0 0  2136
2 37392   0.0451 262.8723 0001011 181.8009  18.4960  1.00271156    18
INTELSAT NEW DAWN   [PM]
1 37392C 11016A   22214.34513889  .00000251  00000-0  00000-0 0  2143
2 37392   0.0418 265.7032 0001064 186.1973  16.0467  1.00271857    16
INTELSAT 18 (IS-18)     
1 37834C 11056A   22208.95403935  .00000143  00000-0  00000-0 0  2081
2 37834   0.0171  28.9615 0001673 107.9660 332.1231  1.00270838    18
INTELSAT 18 (IS-18)     
1 37834C 11056A   22212.95304398  .00000142  00000-0  00000-0 0  2123
2 37834   0.0248 355.0003 0001870 137.1679 340.4666  1.00269527    19
INTELSAT 18 (IS-18) [PM]
1 37834C 11056A   22214.15488426  .00000141  00000-0  00000-0 0  2143
2 37834   0.0266 351.6026 0001974 137.7164  57.1586  1.00270856    16
INTELSAT 22 (IS-22)     
1 38098C 12011A   22208.95403935 -.00002521  00000-0  00000-0 0  2089
2 38098   0.0437 243.8241 0002493 259.5830 217.7370  1.00270871    12
INTELSAT 22 (IS-22)     
1 38098C 12011A   22212.95304398  .00000030  00000-0  00000-0 0  2124
2 38098   0.0000 117.5343 0002648  24.3970 222.7900  1.00270420    18
INTELSAT 22 (IS-22) [PM]
1 38098C 12011A   22214.56946759 -.00003318  00000-0  00000-0 0  2141
2 38098   0.0001 130.0417 0002769   6.9245  91.2562  1.00272656    12
INTELSAT 19 (IS-19)     
1 38356C 12030A   22208.95403935  .00000033  00000-0  00000-0 0  2082
2 38356   0.0116  89.9297 0002759  45.6199 319.4983  1.00270636    19
INTELSAT 19 (IS-19)     
1 38356C 12030A   22212.95304398  .00000022  00000-0  00000-0 0  2123
2 38356   0.0201 216.7152 0002926 275.8766 326.0362  1.00271878    11
INTELSAT 19 (IS-19) [PM]
1 38356C 12030A   22214.28055556  .00000032  00000-0  00000-0 0  2143
2 38356   0.0266 268.0906 0003004 221.3283  88.4169  1.00273125    18
INTELSAT 20 (IS-20) [PM]
1 38740C 12043A   22208.42152778  .00000066  00000-0  00000-0 0  2087
2 38740   0.0088  95.4520 0001174  97.1865 332.6710  1.00272651    11
INTELSAT 20 (IS-20)     
1 38740C 12043A   22209.00000000  .00000066  00000-0  00000-0 0  2093
2 38740   0.0179 117.3598 0001117  92.0718 164.7005  1.00270445    19
INTELSAT 20 (IS-20)     
1 38740C 12043A   22213.00000000  .00000066  00000-0  00000-0 0  2133
2 38740   0.0136 140.4390 0000934  52.5048 185.1422  1.00270170    17
INTELSAT 21 (IS-21)     
1 38749C 12045A   22208.95403935 -.00000195  00000-0  00000-0 0  2084
2 38749   0.0094  82.5303 0001838  50.1305  98.3794  1.00273787    17
INTELSAT 21 (IS-21)     
1 38749C 12045A   22212.95304398 -.00000195  00000-0  00000-0 0  2127
2 38749   0.0147  96.1744 0002013  34.2946 104.1754  1.00271626    18
INTELSAT 21 (IS-21) [PM]
1 38749C 12045A   22213.06885417 -.00000175  00000-0  00000-0 0  2135
2 38749   0.0188 327.0328 0002092 167.4094 142.0066  1.00271184    13
INTELSAT 23 (IS-23)     
1 38867C 12057A   22208.95403935 -.00000190  00000-0  00000-0 0  2083
2 38867   0.0149 108.2757 0000654  62.4944  65.2578  1.00287006    10
INTELSAT 23 (IS-23)     
1 38867C 12057A   22212.95304398 -.00000194  00000-0  00000-0 0  2120
2 38867   0.0083 139.5092 0000896  19.9781  80.1598  1.00270017    12
INTELSAT 23 (IS-23) [PM]
1 38867C 12057A   22216.28384259 -.00000195  00000-0  00000-0 0  2169
2 38867   0.0072 108.0988 0001006 280.3553 333.5676  1.00272555    11
INTELSAT 30 (IS-30) [PM]
1 40271C 14062A   22208.37819444 -.00000143  00000-0  00000-0 0  2083
2 40271   0.0455 245.5902 0001516 170.6098 289.9095  1.00273380    18
INTELSAT 30 (IS-30)     
1 40271C 14062A   22209.00000000 -.00000024  00000-0  00000-0 0  2093
2 40271   0.0001  61.5575 0001440  14.4694 134.5489  1.00271663    14
INTELSAT 30 (IS-30)     
1 40271C 14062A   22213.00000000 -.00003496  00000-0  00000-0 0  2139
2 40271   0.0159 189.8818 0001964 239.8406 144.8132  1.00269842    12
INTELSAT 30 (IS-30) [PM]
1 40271C 14062A   22215.30972222 -.00000063  00000-0  00000-0 0  2157
2 40271   0.0088 352.1759 0002085  73.4513 262.6793  1.00272712    10
INTELSAT 34 (IS-34)     
1 40874C 15039A   22209.00000000 -.00000332  00000-0  00000-0 0  2099
2 40874   0.0076   8.0622 0000665 343.2102 258.8689  1.00269798    17
INTELSAT 34 (IS-34) [PM]
1 40874C 15039A   22209.32886574 -.00000331  00000-0  00000-0 0  2091
2 40874   0.0147 346.8623 0000645   3.5683  18.4207  1.00273996    19
INTELSAT 34 (IS-34)     
1 40874C 15039A   22213.00000000 -.00003893  00000-0  00000-0 0  2134
2 40874   0.0331 306.9567 0000518  81.2338 225.9080  1.00270386    11
INTELSAT 31 (IS-31)     
1 41581C 16035A   22209.00000000 -.00003005  00000-0  00000-0 0  2092
2 41581   0.0229 176.8862 0001469  68.7657 324.9362  1.00270366    16
